NIGERIAEDUSAT-1         
1 42824U 98067MY  18121.51623836  .00016726  00000-0  16860-3 0  9993
2 42824  51.6370 238.5951 0005552   7.0227 353.0845 15.65510461 46509
CORVUS BC2              
1 42846U 17042X   18121.32151788  .00000063  00000-0  11553-4 0  9994
2 42846  97.6011  25.8771 0009667   2.4086 357.7178 14.91797796 43384
CORVUS BC1              
1 42847U 17042Y   18121.50350377  .00000070  00000-0  12243-4 0  9995
2 42847  97.6010  26.0950 0009296   1.6731 358.4517 14.91897109 43409
SILU-1 (SILKROAD 1)     
1 42903U 17021F   18121.80360419  .00018894  00000-0  15742-3 0  9995
2 42903  42.7792 248.7734 0012224 330.1880 156.1437 15.69639224 42639
MIRATA                  
1 43015U 17073C   18121.78491158  .00001525  00000-0  12470-3 0  9997
2 43015  97.7026  54.7600 0260140  62.7192 300.0256 14.77987307 24283
ASTERIA                 
1 43020U 98067NH  18121.79338399  .00009942  00000-0  13504-3 0  9993
2 43020  51.6416 247.2372 0002736   2.3320 357.7685 15.58295962 25256
DELLINGR (RBLE)         
1 43021U 98067NJ  18121.79731609  .00005566  00000-0  82513-4 0  9990
2 43021  51.6397 248.0010 0002389 357.1173   2.9804 15.56937213 25245
TECHEDSAT 6             
1 43026U 98067NK  18121.80954020  .00324123  49872-4  10496-2 0  9997
2 43026  51.6264 235.2088 0013553 336.3859  23.6523 15.90137063 25310
OSIRIS-3U               
1 43027U 98067NL  18121.80194197  .00022381  00000-0  25694-3 0  9993
2 43027  51.6384 245.0272 0004050 330.6518  29.4248 15.61963190 25166
AEROCUBE 7B             
1 43042U 17071F   18121.48858322  .00003173  00000-0  92162-4 0  9990
2 43042  51.6391 268.9701 0005846  96.5438 263.6212 15.38597844 22416
AEROCUBE 7C             
1 43043U 17071G   18121.48840588  .00003075  00000-0  89735-4 0  9999
2 43043  51.6394 268.9719 0005720  98.1309 262.0324 15.38563494 22382
CHEFSAT                 
1 43044U 17071H   18121.52149767  .00004744  00000-0  12991-3 0  9999
2 43044  51.6397 268.4535 0005698  96.8959 263.2673 15.39258046 22393
ASGARDIA 1              
1 43049U 17071N   18121.79802083  .00002877  00000-0  84224-4 0  9994
2 43049  51.6395 267.2940 0003122 114.9785 245.1524 15.38703092 22425
ISARA                   
1 43050U 17071P   18121.77926853  .00003860  00000-0  10795-3 0  9990
2 43050  51.6393 267.1756 0003018 112.4413 247.6891 15.39152561 22428
FAUNA                   
1 43052U 17071R   18121.79028243  .00002914  00000-0  84864-4 0  9998
2 43052  51.6395 267.2482 0003065 112.3721 247.7588 15.38818725 22426
CORVUS BC3              
1 43118U 18004H   18121.60081054  .00000735  00000-0  35145-4 0  9994
2 43118  97.5372 184.0898 0009071 255.5601 104.4628 15.22160887 16621
MICROMAS-2A             
1 43131U 18004W   18121.64217173  .00001564  00000-0  70338-4 0  9990
2 43131  97.5379 184.1952 0008245 258.3427 101.6884 15.22618146 16634
GOMX4-B                 
1 43196U 18015E   18121.64311130  .00000238  00000-0  12865-4 0  9999
2 43196  97.3383 251.5570 0018726 325.3161  34.6855 15.23573100 13448
GOMX4-A                 
1 43197U 18015F   18121.72851668  .00000411  00000-0  20054-4 0  9996
2 43197  97.3387 251.6402 0018616 326.5928 140.7880 15.23607834 13461
